start=new Date('2021-12-27T00:00:00.000Z').valueOf();
sats=[{"ECCENTRICITY":"0.00012870","OBJECT_ID":"2021-104S","ARG_OF_PERICENTER":"55.4396","DECAY_DATE":null,"PERIOD":"92.723","LAUNCH_DATE":"2021-11-13","APOAPSIS":"408.816","SITE":"AFETR","MEAN_ANOMALY":"37.8779","MEAN_MOTION_DDOT":"0.0000000000000","RCS_SIZE":"LARGE","INCLINATION":"53.2177","ELEMENT_SET_NO":"999","EPOCH":"2021-12-26T22:00:00.999936","EPHEMERIS_TYPE":"0","REV_AT_EPOCH":"368","COUNTRY_CODE":"US","TLE_LINE1":"1 49424U 21104S   21360.91667824 -.00657958  00000-0 -11251-1 0  9999","FILE":"3251846","MEAN_ELEMENT_THEORY":"SGP4","CLASSIFICATION_TYPE":"U","TIME_SYSTEM":"UTC","REF_FRAME":"TEME","BSTAR":"-0.01125100000000","CENTER_NAME":"EARTH","OBJECT_NAME":"STARLINK-3135","MEAN_MOTION":"15.53010976","PERIAPSIS":"407.069","MEAN_MOTION_DOT":"-0.00657958","OBJECT_TYPE":"PAYLOAD","TLE_LINE2":"2 49424  53.2177 279.3959 0001287  55.4396  37.8779 15.53010976  3689","SEMIMAJOR_AXIS":"6786.078","GP_ID":"192526541","RA_OF_ASC_NODE":"279.3959","NORAD_CAT_ID":"49424"},{"REF_FRAME":"TEME","CENTER_NAME":"EARTH","BSTAR":"-0.01104800000000","MEAN_MOTION":"15.53471037","OBJECT_NAME":"STARLINK-3139","PERIAPSIS":"405.701","MEAN_MOTION_DOT":"-0.00657103","OBJECT_TYPE":"PAYLOAD","TLE_LINE2":"2 49425  53.2177 279.3909 0001329  57.6145  63.1054 15.53471037  3685","SEMIMAJOR_AXIS":"6784.738","GP_ID":"192526303","RA_OF_ASC_NODE":"279.3909","NORAD_CAT_ID":"49425","OBJECT_ID":"2021-104T","ECCENTRICITY":"0.00013290","ARG_OF_PERICENTER":"57.6145","DECAY_DATE":null,"PERIOD":"92.696","LAUNCH_DATE":"2021-11-13","APOAPSIS":"407.504","SITE":"AFETR","MEAN_ANOMALY":"63.1054","MEAN_MOTION_DDOT":"0.0000000000000","INCLINATION":"53.2177","RCS_SIZE":"LARGE","ELEMENT_SET_NO":"999","EPHEMERIS_TYPE":"0","EPOCH":"2021-12-26T22:00:00.999936","REV_AT_EPOCH":"368","COUNTRY_CODE":"US","TLE_LINE1":"1 49425U 21104T   21360.91667824 -.00657103  00000-0 -11048-1 0  9996","FILE":"3251846","MEAN_ELEMENT_THEORY":"SGP4","CLASSIFICATION_TYPE":"U","TIME_SYSTEM":"UTC"},{"ECCENTRICITY":"0.00013110","OBJECT_ID":"2021-104U","DECAY_DATE":null,"ARG_OF_PERICENTER":"55.6328","PERIOD":"92.709","LAUNCH_DATE":"2021-11-13","SITE":"AFETR","APOAPSIS":"408.162","MEAN_ANOMALY":"51.4540","RCS_SIZE":"LARGE","INCLINATION":"53.2177","MEAN_MOTION_DDOT":"0.0000000000000","EPHEMERIS_TYPE":"0","EPOCH":"2021-12-26T22:00:00.999936","ELEMENT_SET_NO":"999","REV_AT_EPOCH":"368","COUNTRY_CODE":"US","TIME_SYSTEM":"UTC","TLE_LINE1":"1 49426U 21104U   21360.91667824 -.00657634  00000-0 -11151-1 0  9991","MEAN_ELEMENT_THEORY":"SGP4","FILE":"3251846","CLASSIFICATION_TYPE":"U","REF_FRAME":"TEME","CENTER_NAME":"EARTH","BSTAR":"-0.01115100000000","MEAN_MOTION":"15.53241055","OBJECT_NAME":"STARLINK-3114","PERIAPSIS":"406.383","OBJECT_TYPE":"PAYLOAD","MEAN_MOTION_DOT":"-0.00657634","TLE_LINE2":"2 49426  53.2177 279.3934 0001311  55.6328  51.4540 15.53241055  3681","SEMIMAJOR_AXIS":"6785.407","GP_ID":"192527483","RA_OF_ASC_NODE":"279.3934","NORAD_CAT_ID":"49426"},{"PERIOD":"92.689","LAUNCH_DATE":"2021-11-13","ECCENTRICITY":"0.00013450","OBJECT_ID":"2021-104V","ARG_OF_PERICENTER":"55.4759","DECAY_DATE":null,"ELEMENT_SET_NO":"999","EPHEMERIS_TYPE":"0","EPOCH":"2021-12-26T22:00:00.999936","REV_AT_EPOCH":"368","COUNTRY_CODE":"US","MEAN_ELEMENT_THEORY":"SGP4","TLE_LINE1":"1 49427U 21104V   21360.91667824 -.00656905  00000-0 -10998-1 0  9990","FILE":"3251846","CLASSIFICATION_TYPE":"U","TIME_SYSTEM":"UTC","APOAPSIS":"407.180","SITE":"AFETR","MEAN_ANOMALY":"72.0094","MEAN_MOTION_DDOT":"0.0000000000000","INCLINATION":"53.2177","RCS_SIZE":"LARGE","MEAN_MOTION":"15.53586048","OBJECT_NAME":"STARLINK-3131","PERIAPSIS":"405.355","REF_FRAME":"TEME","CENTER_NAME":"EARTH","BSTAR":"-0.01099800000000","GP_ID":"192527247","RA_OF_ASC_NODE":"279.3894","NORAD_CAT_ID":"49427","MEAN_MOTION_DOT":"-0.00656905","OBJECT_TYPE":"PAYLOAD","TLE_LINE2":"2 49427  53.2177 279.3894 0001345  55.4759  72.0094 15.53586048  3687","SEMIMAJOR_AXIS":"6784.403"},{"OBJECT_TYPE":"PAYLOAD","MEAN_MOTION_DOT":"-0.00656430","TLE_LINE2":"2 49428  53.2177 279.3829 0001366  57.7637  88.9105 15.53894127  3688","SEMIMAJOR_AXIS":"6783.506","GP_ID":"192526067","RA_OF_ASC_NODE":"279.3829","NORAD_CAT_ID":"49428","REF_FRAME":"TEME","CENTER_NAME":"EARTH","BSTAR":"-0.01086600000000","OBJECT_NAME":"STARLINK-3121","MEAN_MOTION":"15.53894127","PERIAPSIS":"404.445","SITE":"AFETR","APOAPSIS":"406.298","MEAN_ANOMALY":"88.9105","RCS_SIZE":"LARGE","INCLINATION":"53.2177","MEAN_MOTION_DDOT":"0.0000000000000","EPOCH":"2021-12-26T22:00:00.999936","EPHEMERIS_TYPE":"0","ELEMENT_SET_NO":"999","REV_AT_EPOCH":"368","COUNTRY_CODE":"US","TIME_SYSTEM":"UTC","FILE":"3251846","TLE_LINE1":"1 49428U 21104W   21360.91667824 -.00656430  00000-0 -10866-1 0  9998","MEAN_ELEMENT_THEORY":"SGP4","CLASSIFICATION_TYPE":"U","ECCENTRICITY":"0.00013660","OBJECT_ID":"2021-104W","DECAY_DATE":null,"ARG_OF_PERICENTER":"57.7637","PERIOD":"92.670","LAUNCH_DATE":"2021-11-13"},{"ECCENTRICITY":"0.00013030","OBJECT_ID":"2021-104Y","DECAY_DATE":null,"ARG_OF_PERICENTER":"62.8212","PERIOD":"92.682","LAUNCH_DATE":"2021-11-13","SITE":"AFETR","APOAPSIS":"406.817","MEAN_ANOMALY":"71.3954","INCLINATION":"53.2177","RCS_SIZE":"LARGE","MEAN_MOTION_DDOT":"0.0000000000000","EPHEMERIS_TYPE":"0","EPOCH":"2021-12-26T22:00:00.999936","ELEMENT_SET_NO":"999","REV_AT_EPOCH":"368","COUNTRY_CODE":"US","TIME_SYSTEM":"UTC","TLE_LINE1":"1 49430U 21104Y   21360.91667824 -.00656745  00000-0 -10949-1 0  9992","FILE":"3251846","CLASSIFICATION_TYPE":"U","MEAN_ELEMENT_THEORY":"SGP4","REF_FRAME":"TEME","BSTAR":"-0.01094900000000","CENTER_NAME":"EARTH","MEAN_MOTION":"15.53701106","OBJECT_NAME":"STARLINK-3138","PERIAPSIS":"405.049","OBJECT_TYPE":"PAYLOAD","MEAN_MOTION_DOT":"-0.00656745","TLE_LINE2":"2 49430  53.2177 279.3876 0001303  62.8212  71.3954 15.53701106  3682","SEMIMAJOR_AXIS":"6784.068","GP_ID":"192526778","RA_OF_ASC_NODE":"279.3876","NORAD_CAT_ID":"49430"},{"CENTER_NAME":"EARTH","BSTAR":"-0.01133300000000","REF_FRAME":"TEME","PERIAPSIS":"407.560","MEAN_MOTION":"15.52802205","OBJECT_NAME":"STARLINK-3153","SEMIMAJOR_AXIS":"6786.686","TLE_LINE2":"2 49431  53.2176 279.3833 0001460  44.5894  47.1924 15.52802205  3681","MEAN_MOTION_DOT":"-0.00657780","OBJECT_TYPE":"PAYLOAD","NORAD_CAT_ID":"49431","RA_OF_ASC_NODE":"279.3833","GP_ID":"192527014","ARG_OF_PERICENTER":"44.5894","DECAY_DATE":null,"OBJECT_ID":"2021-104Z","ECCENTRICITY":"0.00014600","LAUNCH_DATE":"2021-11-13","PERIOD":"92.736","MEAN_MOTION_DDOT":"0.0000000000000","RCS_SIZE":"LARGE","INCLINATION":"53.2176","MEAN_ANOMALY":"47.1924","APOAPSIS":"409.542","SITE":"AFETR","TLE_LINE1":"1 49431U 21104Z   21360.91667824 -.00657780  00000-0 -11333-1 0  9991","FILE":"3251846","CLASSIFICATION_TYPE":"U","MEAN_ELEMENT_THEORY":"SGP4","TIME_SYSTEM":"UTC","COUNTRY_CODE":"US","REV_AT_EPOCH":"368","ELEMENT_SET_NO":"999","EPOCH":"2021-12-26T22:00:00.999936","EPHEMERIS_TYPE":"0"},{"REV_AT_EPOCH":"369","EPOCH":"2021-12-26T22:00:00.999936","EPHEMERIS_TYPE":"0","ELEMENT_SET_NO":"999","TIME_SYSTEM":"UTC","TLE_LINE1":"1 49432U 21104AA  21360.91667824 -.00096472  00000-0 -68922-3 0  9995","CLASSIFICATION_TYPE":"U","FILE":"3251846","MEAN_ELEMENT_THEORY":"SGP4","COUNTRY_CODE":"US","MEAN_ANOMALY":"270.6479","SITE":"AFETR","APOAPSIS":"350.800","RCS_SIZE":"LARGE","INCLINATION":"53.2171","MEAN_MOTION_DDOT":"0.0000000000000","PERIOD":"91.530","LAUNCH_DATE":"2021-11-13","ECCENTRICITY":"0.00017720","OBJECT_ID":"2021-104AA","DECAY_DATE":null,"ARG_OF_PERICENTER":"36.1826","RA_OF_ASC_NODE":"278.2503","GP_ID":"192527718","NORAD_CAT_ID":"49432","TLE_LINE2":"2 49432  53.2171 278.2503 0001772  36.1826 270.6479 15.73253504  3691","OBJECT_TYPE":"PAYLOAD","MEAN_MOTION_DOT":"-0.00096472","SEMIMAJOR_AXIS":"6727.743","PERIAPSIS":"348.415","MEAN_MOTION":"15.73253504","OBJECT_NAME":"STARLINK-3158","REF_FRAME":"TEME","BSTAR":"-0.00068922000000","CENTER_NAME":"EARTH"},{"ARG_OF_PERICENTER":"21.4186","DECAY_DATE":null,"OBJECT_ID":"2021-104AB","ECCENTRICITY":"0.00021870","LAUNCH_DATE":"2021-11-13","PERIOD":"91.529","MEAN_MOTION_DDOT":"0.0000000000000","RCS_SIZE":"LARGE","INCLINATION":"53.2160","APOAPSIS":"351.020","SITE":"AFETR","MEAN_ANOMALY":"248.6345","COUNTRY_CODE":"US","TLE_LINE1":"1 49433U 21104AB  21360.91667824 -.00092844  00000-0 -66221-3 0  9995","CLASSIFICATION_TYPE":"U","FILE":"3251846","MEAN_ELEMENT_THEORY":"SGP4","TIME_SYSTEM":"UTC","ELEMENT_SET_NO":"999","EPOCH":"2021-12-26T22:00:00.999936","EPHEMERIS_TYPE":"0","REV_AT_EPOCH":"368","BSTAR":"-0.00066221000000","CENTER_NAME":"EARTH","REF_FRAME":"TEME","MEAN_MOTION":"15.73274049","OBJECT_NAME":"STARLINK-3079","PERIAPSIS":"348.078","SEMIMAJOR_AXIS":"6727.684","MEAN_MOTION_DOT":"-0.00092844","OBJECT_TYPE":"PAYLOAD","TLE_LINE2":"2 49433  53.2160 278.3255 0002187  21.4186 248.6345 15.73274049  3685","NORAD_CAT_ID":"49433","GP_ID":"192526542","RA_OF_ASC_NODE":"278.3255"},{"ECCENTRICITY":"0.00013380","OBJECT_ID":"2021-104AC","DECAY_DATE":null,"ARG_OF_PERICENTER":"60.0665","PERIOD":"92.675","LAUNCH_DATE":"2021-11-13","MEAN_ANOMALY":"81.5019","SITE":"AFETR","APOAPSIS":"406.522","INCLINATION":"53.2177","RCS_SIZE":"LARGE","MEAN_MOTION_DDOT":"0.0000000000000","REV_AT_EPOCH":"368","EPOCH":"2021-12-26T22:00:00.999936","EPHEMERIS_TYPE":"0","ELEMENT_SET_NO":"999","TIME_SYSTEM":"UTC","MEAN_ELEMENT_THEORY":"SGP4","TLE_LINE1":"1 49434U 21104AC  21360.91667824 -.00656460  00000-0 -10900-1 0  9997","FILE":"3251846","CLASSIFICATION_TYPE":"U","COUNTRY_CODE":"US","REF_FRAME":"TEME","CENTER_NAME":"EARTH","BSTAR":"-0.01090000000000","PERIAPSIS":"404.707","OBJECT_NAME":"STARLINK-3134","MEAN_MOTION":"15.53810447","TLE_LINE2":"2 49434  53.2177 279.3847 0001338  60.0665  81.5019 15.53810447  3688","OBJECT_TYPE":"PAYLOAD","MEAN_MOTION_DOT":"-0.00656460","SEMIMAJOR_AXIS":"6783.750","RA_OF_ASC_NODE":"279.3847","GP_ID":"192526304","NORAD_CAT_ID":"49434"}];
